ZHOU ENLAI              
1 43156U 18008B   21120.88176310  .00001555  00000-0  94197-4 0  9996
2 43156  97.4100 187.1086 0015686 127.9521 342.8609 15.11932509180823
QUANTUTONG 1            
1 43158U 18008D   21120.45701417  .00001443  00000-0  89020-4 0  9998
2 43158  97.4026 185.3386 0014498 128.2029 243.8890 15.11373354180696
S-NET D                 
1 43186U 18014G   21120.56593938  .00000815  00000-0  75771-4 0  9995
2 43186  97.6808  29.0067 0009295 237.7410 122.2911 14.97036266177136
S-NET B                 
1 43187U 18014H   21120.69952183  .00000800  00000-0  74444-4 0  9991
2 43187  97.6805  29.1062 0009297 237.2032 122.8295 14.97036012177159
S-NET A                 
1 43188U 18014J   21120.69953471  .00000804  00000-0  74812-4 0  9996
2 43188  97.6808  29.1488 0009289 237.3425 122.6902 14.97034728177158
S-NET C                 
1 43189U 18014K   21120.70001447  .00000770  00000-0  71817-4 0  9990
2 43189  97.6805  29.0997 0009280 237.2101 122.8227 14.97034934175701
FENGMANIU-1 (FMN-1)     
1 43192U 18015A   21120.93990826  .00004894  00000-0  18269-3 0  9990
2 43192  97.4812 256.1033 0015877  54.3679  94.0692 15.27755182180332
SHAONIAN XING           
1 43199U 18015H   21120.94350951  .00003595  00000-0  13662-3 0  9996
2 43199  97.4593 253.4377 0017325  63.0407  54.6001 15.27323959180397
LUOJIA-1 01             
1 43485U 18048B   21120.90474867  .00000261  00000-0  44441-4 0  9996
2 43485  97.9621 203.2266 0012786  90.1457 270.1198 14.76832611156976
SURFSAT                 
1 43614U 18070B   21120.90962252  .00005023  00000-0  11883-3 0  9999
2 43614  93.0265 286.2106 0014216 177.6878 182.4446 15.41735323147340
CP7 (DAVE)              
1 43615U 18070C   21120.91825805  .00005161  00000-0  12318-3 0  9990
2 43615  93.0269 286.1761 0014389 177.8508 182.2812 15.41461662147330
ELFIN-B                 
1 43616U 18070D   21120.89708974  .00007604  00000-0  16597-3 0  9992
2 43616  93.0227 286.3031 0014454 176.6079 183.5278 15.44112360147432
ELFIN-A                 
1 43617U 18070E   21120.93540272  .00008332  00000-0  17926-3 0  9999
2 43617  93.0275 287.1206 0013908 172.9010 187.2447 15.44541583147450
STARS-ME                
1 43640U 98067PQ  21120.41218736  .00121513  16562-4  39165-3 0  9999
2 43640  51.6256 121.7043 0004257  72.7547 287.3924 15.90714794146634
CZ-4B R/B               
1 43656U 18081B   21120.91268049  .00000030  00000-0  27246-4 0  9995
2 43656  99.3610 217.4964 0207671 249.5955 108.2813 14.30463993131379
CUBEBEL-1 (BSUSAT-1)    
1 43666U 18083E   21120.95632751  .00002090  00000-0  10237-3 0  9996
2 43666  97.4602 149.9177 0013967 341.6633 104.1662 15.19206731138800
CHANGSHAGAOXIN (TY 4-01)
1 43669U 18083H   21120.84559631  .00001774  00000-0  90437-4 0  9991
2 43669  97.4494 147.0275 0010241 339.1227 124.7606 15.18014628138664
TEN-KOH                 
1 43677U 18084G   21120.78974262  .00000174  00000-0  23697-4 0  9992
2 43677  97.9129 243.7254 0015844 186.6961 173.4047 14.90447061136206
DIWATA-2B               
1 43678U 18084H   21120.89611775 -.00000037  00000-0  20350-5 0  9995
2 43678  97.9159 245.9503 0009235 200.3560 159.7315 14.91735641136342
STARS-AO                
1 43679U 18084J   21120.89691455  .00000689  00000-0  72800-4 0  9997
2 43679  97.9204 247.0906 0008492 206.7545 153.3237 14.92479821136395
AUTCUBE 2               
1 43681U 18084K   21120.57792872  .00000335  00000-0  38704-4 0  9993
2 43681  97.9168 245.9307 0008942 201.4332 158.6514 14.92059874136270
IRVINE01                
1 43693U 18088D   21120.73197575  .00004251  00000-0  16710-3 0  9990
2 43693  85.0370 226.6541 0016435 193.5581 166.5223 15.25227312137160
ES'HAIL 2               
1 43700U 18090A   21120.90408478  .00000134  00000-0  00000-0 0  9996
2 43700   0.0262 118.0433 0001271 289.3016 162.9917  1.00271479  8897
FACSAT-1                
1 43721U 18096C   21120.88022177  .00003347  00000-0  12226-3 0  9995
2 43721  97.3870 198.3860 0018510  80.8338  30.3738 15.28649631134853
CENTAURI-2              
1 43722U 18096D   21120.66819393  .00003533  00000-0  12484-3 0  9999
2 43722  97.3883 198.8770 0018223  81.4949 278.8355 15.29706683134855
3CAT-1                  
1 43728U 18096K   21120.88907479  .00004858  00000-0  16907-3 0  9997
2 43728  97.3899 199.6381 0018157  83.4135  26.6427 15.30012354134913
INNOSAT-2               
1 43738U 18096V   21120.89607130  .00007017  00000-0  22018-3 0  9990
2 43738  97.3935 202.5986 0023250  81.7296  11.4787 15.33089407135119
REAKTOR HELLO WORLD     
1 43743U 18096AA  21120.86254944  .00002236  00000-0  82640-4 0  9990
2 43743  97.3868 198.7394 0018969  86.2857 274.0552 15.28621298134865
ELYSIUM STAR 2 & LFF    
1 43760U 18099C   21120.91288703  .00000624  00000-0  60304-4 0  9990
2 43760  97.6723 193.1464 0013263 200.7913 159.2771 14.96232002131401
2018-099D               
1 43761U 18099D   21120.96958544  .00000365  00000-0  38306-4 0  9992
2 43761  97.6689 192.6288 0013640 203.4851 156.5748 14.95285005131371
AISTECHSAT 2            
1 43768U 18099L   21120.64558602  .00000004  00000-0  55345-5 0  9998
2 43768  97.6649 191.2684 0010884 202.2502 157.8248 14.94876014131000
FOX-1CLIFF (AO-95)      
1 43770U 18099N   21120.87155949  .00000910  00000-0  87724-4 0  9994
2 43770  97.6674 192.1040 0013782 211.1368 148.9038 14.95279970131340
RANGE-A                 
1 43772U 18099Q   21120.77550978  .00000233  00000-0  26088-4 0  9990
2 43772  97.6759 192.9325 0013643 198.4463 161.6266 14.95570699131335
RANGE-B                 
1 43773U 18099R   21120.67296856  .00000802  00000-0  78100-4 0  9996
2 43773  97.6611 191.2802 0013082 198.0224 162.0535 14.95183907131306
2018-099T               
1 43775U 18099T   21121.14486923  .00000475  00000-0  48252-4 0  9998
2 43775  97.6660 192.5790 0014329 203.1513 156.9075 14.95257032131375
MOVE-II                 
1 43780U 18099Y   21120.65120227  .00000554  00000-0  54628-4 0  9993
2 43780  97.6689 192.3689 0012810 208.7950 151.2566 14.95857214131322
SNUSAT-2                
1 43782U 18099AA  21120.91199535  .00000048  00000-0  94817-5 0  9995
2 43782  97.6672 192.4683 0012289 196.4896 163.5927 14.95525762131364
SNUGLITE                
1 43784U 18099AC  21120.18838266  .00000385  00000-0  39729-4 0  9991
2 43784  97.6635 191.4996 0014439 207.8976 152.1473 14.95643861131277
ITASAT 1                
1 43786U 18099AE  21121.13472903  .00000642  00000-0  62885-4 0  9996
2 43786  97.6672 193.0084 0014608 205.8541 154.2042 14.95578504131412
KAZSCISAT-1             
1 43787U 18099AF  21120.67089255  .00001225  00000-0  11407-3 0  9990
2 43787  97.6605 191.7566 0013675 201.1727 158.8930 14.96038348131365
EAGLET-I                
1 43790U 18099AJ  21120.64525688 -.00000198  00000-0 -12523-4 0  9997
2 43790  97.6682 192.9204 0012672 209.4796 150.5712 14.95940619131065
ESEO                    
1 43792U 18099AL  21120.75684313  .00000364  00000-0  37758-4 0  9992
2 43792  97.6652 192.6585 0012518 204.9148 155.1471 14.95725543131131
CSIM-FD                 
1 43793U 18099AM  21120.80807082  .00001363  00000-0  12481-3 0  9994
2 43793  97.6675 193.0180 0012630 199.5503 160.5235 14.96515999131144
ASTROCAST 0.1           
1 43798U 18099AS  21120.66867847  .00001113  00000-0  10391-3 0  9999
2 43798  97.6684 193.1203 0012351 187.0346 173.0704 14.96126312131375
JY1SAT (JO-97)          
1 43803U 18099AX  21120.63797897  .00000112  00000-0  15182-4 0  9992
2 43803  97.6655 192.2782 0014402 205.5303 154.5208 14.95818860131345
SUOMI-100               
1 43804U 18099AY  21120.64257625  .00000061  00000-0  10545-4 0  9995
2 43804  97.6652 192.2530 0014495 205.7680 154.2821 14.95791022131355
AL-FARABI 2             
1 43805U 18099AZ  21120.91801622  .00000089  00000-0  13008-4 0  9995
2 43805  97.6666 192.7206 0014362 204.6852 155.3682 14.95994835131408
CENTAURI-1              
1 43809U 18099BD  21120.65443280  .00000177  00000-0  20928-4 0  9999
2 43809  97.6661 192.5599 0014603 206.9457 153.1008 14.95799580131053
CHOMPTT                 
1 43855U 18104G   21120.65001944  .00001570  00000-0  63258-4 0  9995
2 43855  85.0348 325.2002 0015915 329.8836  30.1490 15.23849941131816
DAVINCI                 
1 43857U 18104J   21120.82083352  .00003909  00000-0  15429-3 0  9993
2 43857  85.0301 324.9674 0014534 356.7230   3.3915 15.25093120131828
UWE-4                   
1 43880U 18111E   21120.72052316  .00000009  00000-0  58854-5 0  9991
2 43880  97.6897  29.2622 0010739 264.8483  95.1513 14.96823948127940
ZACUBE-2                
1 43907U 18111AH  21120.95149598  .00001273  00000-0  53252-4 0  9995
2 43907  97.2383  16.6829 0023037 100.2148 315.4358 15.25123507130396
MICRODRAGON             
1 43935U 19003D   21120.89538148  .00001116  00000-0  49883-4 0  9994
2 43935  97.1861 164.3669 0017577 188.6506 171.4431 15.23192216126860
AOBA VELOX-IV           
1 43940U 19003J   21120.60304254  .00003805  00000-0  14560-3 0  9998
2 43940  97.1823 166.4907 0022973 174.7739 185.3745 15.26909265127004
M6P                     
1 44109U 19018AF  21120.63505994  .00003220  00000-0  99545-4 0  9997
2 44109  97.4274 197.5884 0056757 161.9620 198.3653 15.32689051116137
SPOOQY-1                
1 44332U 98067QH  21120.69647321  .00037444  00000-0  27944-3 0  9991
2 44332  51.6318 171.3397 0003893  65.2947 294.8457 15.72346075106577
FORMOSAT 7-4            
1 44350U 19036M   21120.87983555  .00001149  00000-0  51612-4 0  9995
2 44350  24.0003 336.4137 0005976 201.9241 158.1007 15.07743158101140
PAINANI 1               
1 44365U 19037A   21120.55648893  .00003513  00000-0  92076-4 0  9996
2 44365  45.0039 164.6426 0006656 284.7006  75.3144 15.40828331103388
ACRUX 1                 
1 44369U 19037E   21120.48077371  .00008023  00000-0  16453-3 0  9994
2 44369  45.0045 144.8157 0011797 273.1109  86.8432 15.46558766103563
